[{"OBJECT_NAME":"STARLINK-3209","OBJECT_ID":"2021-115AE","EPOCH":"2026-03-09T11:28:44.184288","MEAN_MOTION":15.08837439,"ECCENTRICITY":0.00014926,"INCLINATION":53.2181,"RA_OF_ASC_NODE":140.0795,"ARG_OF_PERICENTER":97.8265,"MEAN_ANOMALY":262.2897,"EPHEMERIS_TYPE":0,"CLASSIFICATION_TYPE":"U","NORAD_CAT_ID":49752,"ELEMENT_SET_NO":999,"REV_AT_EPOCH":23564,"BSTAR":-3.8247043e-5,"MEAN_MOTION_DOT":-8.97e-6,"MEAN_MOTION_DDOT":0},{"OBJECT_NAME":"COSMOS 375 DEB","OBJECT_ID":"1970-091V","EPOCH":"2026-03-09T22:01:47.731584","MEAN_MOTION":14.28591479,"ECCENTRICITY":0.04283998,"INCLINATION":62.7761,"RA_OF_ASC_NODE":80.9886,"ARG_OF_PERICENTER":147.2789,"MEAN_ANOMALY":215.5608,"EPHEMERIS_TYPE":0,"CLASSIFICATION_TYPE":"U","NORAD_CAT_ID":4724,"ELEMENT_SET_NO":999,"REV_AT_EPOCH":74498,"BSTAR":0.00071367249,"MEAN_MOTION_DOT":4.733e-5,"MEAN_MOTION_DDOT":0}]
